      2.10          N: GNSS NAV DATA                        RINEX VERSION / TYPE
fic2rin                                 12/25/2021 00:17:22 PGM / RUN BY / DATE
                                                            END OF HEADER
15 21 12 24  2  0  0.0-9.689340367913e-05 2.842170943040e-12 0.000000000000e+00
    7.200000000000e+01-3.931250000000e+01 5.108427072207e-09 1.436469310370e+00
   -2.117827534676e-06 1.392230379861e-02 1.017749309540e-05 5.153719665527e+03
    4.392000000000e+05-2.682209014893e-07 1.048239613102e+00-9.313225746155e-08
    9.295590555915e-01 1.717812500000e+02 1.065460300607e+00-8.341061724415e-09
    2.392956819114e-10 1.000000000000e+00 2.189000000000e+03 0.000000000000e+00
    2.400000000000e+00 0.000000000000e+00-1.071020960808e-08 7.200000000000e+01
    4.320000000000e+05 4.000000000000e+00
13 21 12 24  2  0  0.0 2.341629005969e-04 5.911715561524e-12 0.000000000000e+00
    4.500000000000e+01-1.681250000000e+01 4.223747364603e-09 1.817639833961e+00
   -8.903443813324e-07 5.781640997157e-03 9.549781680107e-06 5.153679141998e+03
    4.392000000000e+05-9.313225746155e-08 1.304930767947e+00-9.499490261078e-08
    9.681080705013e-01 1.994687500000e+02 9.768224818572e-01-7.806039438590e-09
    3.918020344131e-10 1.000000000000e+00 2.189000000000e+03 0.000000000000e+00
    2.400000000000e+00 0.000000000000e+00-1.117587089539e-08 4.500000000000e+01
    4.320000000000e+05 4.000000000000e+00
31 21 12 24  2  0  0.0-1.565152779222e-04-1.818989403546e-12 0.000000000000e+00
    8.000000000000e+01 1.190625000000e+01 4.948063249553e-09-9.634925288512e-01
    6.835907697678e-07 1.045069354586e-02 5.798414349556e-06 5.153654174805e+03
    4.392000000000e+05 2.272427082062e-07 2.243125702526e+00-8.009374141693e-08
    9.550612316424e-01 2.575625000000e+02 3.553283887851e-01-8.190341160585e-09
    2.164375869228e-10 1.000000000000e+00 2.189000000000e+03 0.000000000000e+00
    2.400000000000e+00 0.000000000000e+00-1.303851604462e-08 8.000000000000e+01
    4.320000000000e+05 4.000000000000e+00
29 21 12 24  2  0  0.0-4.580277018249e-04-5.002220859751e-12 0.000000000000e+00
    1.010000000000e+02 9.287500000000e+01 4.019453140643e-09 2.464538169496e+00
    4.937872290611e-06 1.752259908244e-03 7.566064596176e-06 5.153775335312e+03
    4.392000000000e+05 6.891787052155e-08-1.896002059068e+00 1.117587089539e-08
    9.822679442483e-01 2.458125000000e+02 2.317425250521e+00-7.794967548830e-09
    2.500104139373e-11 1.000000000000e+00 2.189000000000e+03 0.000000000000e+00
    2.400000000000e+00 0.000000000000e+00-1.024454832077e-08 1.010000000000e+02
    4.320000000000e+05 4.000000000000e+00
30 21 12 24  2  0  0.0-5.015959031880e-04-2.842170943040e-12 0.000000000000e+00
    1.000000000000e+02 1.478125000000e+01 5.349508542789e-09-5.227647523474e-01
    8.419156074524e-07 5.369543563575e-03 6.087124347687e-06 5.153595827103e+03
    4.392000000000e+05 7.264316082001e-08 2.239208250754e+00 5.029141902924e-08
    9.359812249978e-01 2.472500000000e+02-2.751161340684e+00-8.442137363193e-09
    1.642925577302e-10 1.000000000000e+00 2.189000000000e+03 0.000000000000e+00
    2.400000000000e+00 0.000000000000e+00 3.725290298462e-09 1.000000000000e+02
    4.320000000000e+05 4.000000000000e+00
20 21 12 24  2  0  0.0 5.175047554076e-04-2.273736754432e-13 0.000000000000e+00
    6.300000000000e+01-8.734375000000e+01 4.901275586373e-09 1.233343699750e+00
   -4.481524229050e-06 5.378049565479e-03 5.008652806282e-06 5.153713918686e+03
    4.392000000000e+05 2.048909664154e-08-2.809835678649e-02 1.154839992523e-07
    9.413893127578e-01 2.738125000000e+02 3.076480036565e+00-8.358562453391e-09
   -1.982225424788e-10 1.000000000000e+00 2.189000000000e+03 0.000000000000e+00
    2.400000000000e+00 0.000000000000e+00-8.381903171539e-09 6.300000000000e+01
    4.320000000000e+05 4.000000000000e+00
24 21 12 24  2  0  0.0 2.759359776974e-04 1.364242052659e-12 0.000000000000e+00
    7.400000000000e+01 2.221875000000e+01 5.478442484834e-09 4.556722307717e-01
    1.147389411926e-06 1.220198743977e-02 6.088986992836e-06 5.153693414688e+03
    4.392000000000e+05-9.685754776001e-08 2.143398634117e+00 2.048909664154e-07
    9.342106069702e-01 2.500937500000e+02 7.933942541810e-01-8.592500769289e-09
    1.217907873609e-10 1.000000000000e+00 2.189000000000e+03 0.000000000000e+00
    2.400000000000e+00 0.000000000000e+00 2.328306436539e-09 7.400000000000e+01
    4.320000000000e+05 4.000000000000e+00
19 21 12 24  2  0  0.0 9.620003402233e-05 5.002220859751e-12 0.000000000000e+00
    1.870000000000e+02 8.568750000000e+01 4.024453348921e-09-1.532848397128e+00
    4.598870873451e-06 8.923718822189e-03 7.914379239082e-06 5.153676269531e+03
    4.392000000000e+05-1.937150955200e-07-1.863948238046e+00 1.117587089539e-07
    9.789822053727e-01 2.392812500000e+02 1.988436508648e+00-7.876399512226e-09
    3.928735076157e-11 1.000000000000e+00 2.189000000000e+03 0.000000000000e+00
    3.400000000000e+00 0.000000000000e+00-1.583248376846e-08 1.870000000000e+02
    4.320000000000e+05 4.000000000000e+00
25 21 12 24  2  0  0.0 2.603223547339e-04 5.684341886081e-12 0.000000000000e+00
    9.400000000000e+01 1.300000000000e+01 4.680552106640e-09-1.402778176805e+00
    7.450580596924e-07 1.023732568137e-02 8.264556527138e-06 5.153731496811e+03
    4.392000000000e+05 2.533197402954e-07-3.021992140045e+00 1.303851604462e-07
    9.587852227387e-01 2.180312500000e+02 9.669799792604e-01-7.936044853837e-09
   -3.643008888800e-10 1.000000000000e+00 2.189000000000e+03 0.000000000000e+00
    3.400000000000e+00 0.000000000000e+00 5.587935447693e-09 9.400000000000e+01
    4.320000000000e+05 4.000000000000e+00
17 21 12 24  2  0  0.0 5.517206154764e-04 5.229594535194e-12 0.000000000000e+00
    1.060000000000e+02 8.112500000000e+01 3.924092025612e-09 2.363697984274e+00
    4.220753908157e-06 1.376542635262e-02 7.623806595802e-06 5.153728427887e+03
    4.392000000000e+05 1.545995473862e-07-1.908903791082e+00-8.568167686462e-08
    9.802952006813e-01 2.360937500000e+02-1.518326549172e+00-7.553886078247e-09
   -8.036049019412e-11 1.000000000000e+00 2.189000000000e+03 0.000000000000e+00
    2.400000000000e+00 0.000000000000e+00-1.117587089539e-08 1.060000000000e+02
    4.320000000000e+05 4.000000000000e+00
18 21 12 24  2  0  0.0 2.741143107414e-04-6.821210263297e-12 0.000000000000e+00
    0.000000000000e+00 1.468750000000e+01 4.488758403376e-09 3.333946181041e-01
    6.183981895447e-07 2.090005553328e-03 2.089887857437e-06 5.153632530212e+03
    4.392000000000e+05 4.470348358154e-08-9.022129020231e-01-3.166496753693e-08
    9.701589060983e-01 3.420625000000e+02 3.097973546439e+00-8.327489730516e-09
   -2.571535686212e-11 1.000000000000e+00 2.189000000000e+03 0.000000000000e+00
    2.400000000000e+00 0.000000000000e+00-8.381903171539e-09 7.680000000000e+02
    4.320000000000e+05 4.000000000000e+00
14 21 12 24  2  0  0.0-6.000790745020e-05-5.911715561524e-12 0.000000000000e+00
    1.600000000000e+02 1.087500000000e+01 4.717696510996e-09-1.178650721134e+00
    5.383044481277e-07 1.263089478016e-03 8.393079042435e-06 5.153642408371e+03
    4.392000000000e+05-3.725290298462e-09-2.976393688641e+00-2.048909664154e-08
    9.547983906140e-01 2.147187500000e+02 3.069275789691e+00-8.031763126602e-09
   -3.618007847406e-10 1.000000000000e+00 2.189000000000e+03 0.000000000000e+00
    2.400000000000e+00 0.000000000000e+00-7.916241884232e-09 4.160000000000e+02
    4.320000000000e+05 4.000000000000e+00
22 21 12 24  2  0  0.0-4.342538304627e-04 8.981260180008e-12 0.000000000000e+00
    2.100000000000e+01-1.009062500000e+02 5.033066790291e-09 1.240048918935e+00
   -5.442649126053e-06 6.829640245996e-03 4.693865776062e-06 5.153656263351e+03
    4.392000000000e+05 1.732259988785e-07 1.774209198935e-02-3.539025783539e-08
    9.381107436437e-01 2.755000000000e+02-8.648542065006e-01-8.462852511776e-09
   -1.971510692762e-10 1.000000000000e+00 2.189000000000e+03 0.000000000000e+00
    2.400000000000e+00 6.300000000000e+01-1.769512891769e-08 2.100000000000e+01
    4.320000000000e+05 4.000000000000e+00
11 21 12 24  2  0  0.0 1.007458195090e-05-3.751665644813e-12 0.000000000000e+00
    8.400000000000e+01 7.812500000000e+00 4.627335604244e-09 2.396946035063e+00
    4.414469003677e-07 3.319340758026e-04 2.590939402580e-06 5.153751667023e+03
    4.392000000000e+05 1.117587089539e-08-8.657998513762e-01 6.332993507385e-08
    9.614815841044e-01 3.304687500000e+02 2.767331042971e+00-8.363919819404e-09
   -7.857470152314e-12 1.000000000000e+00 2.189000000000e+03 0.000000000000e+00
    2.400000000000e+00 6.300000000000e+01-8.847564458847e-09 3.400000000000e+02
    4.320000000000e+05 4.000000000000e+00
27 21 12 24  2  0  0.0 2.205604687333e-05 2.819433575496e-11 0.000000000000e+00
    2.700000000000e+01 1.028125000000e+02 4.100885104039e-09 2.366425609662e+00
    5.226582288742e-06 9.879916324280e-03 9.169802069664e-06 5.153652845383e+03
    4.392000000000e+05-1.844018697739e-07-1.971033006122e+00-1.601874828339e-07
    9.739550249076e-01 2.079375000000e+02 6.271769212362e-01-7.735679364953e-09
    1.785788670980e-11 1.000000000000e+00 2.189000000000e+03 0.000000000000e+00
    3.400000000000e+00 6.300000000000e+01 1.862645149231e-09 2.700000000000e+01
    4.320000000000e+05 4.000000000000e+00
28 21 12 24  2  0  0.0 4.369243979454e-04-7.844391802792e-12 0.000000000000e+00
    7.600000000000e+01 1.759375000000e+01 4.257677349352e-09 2.826332217316e+00
    8.959323167801e-07 1.712304959074e-02 8.685514330864e-06 5.153707498550e+03
    4.392000000000e+05 2.700835466385e-07-2.923846743553e+00 4.470348358154e-08
    9.704920008416e-01 2.133125000000e+02-1.299876959447e+00-7.556029024652e-09
   -4.446613790741e-10 1.000000000000e+00 2.189000000000e+03 0.000000000000e+00
    2.400000000000e+00 6.300000000000e+01-1.117587089539e-08 7.600000000000e+01
    4.320000000000e+05 4.000000000000e+00
